<?xml version="1.0" encoding="UTF-8"?>
<ndm xmlns:xsi="http://www.w3.org/2001/XMLSchema-instance" xsi:noNamespaceSchemaLocation="https://sanaregistry.org/r/ndmxml_unqualified/ndmxml-2.0.0-master-2.0.xsd">
<omm id="CCSDS_OMM_VERS" version="2.0">
<header><CREATION_DATE/><ORIGINATOR/></header><body><segment><metadata><OBJECT_NAME>IRIDIUM 63</OBJECT_NAME><OBJECT_ID>1998-021B</OBJECT_ID><CENTER_NAME>EARTH</CENTER_NAME><REF_FRAME>TEME</REF_FRAME><TIME_SYSTEM>UTC</TIME_SYSTEM><MEAN_ELEMENT_THEORY>SGP4</MEAN_ELEMENT_THEORY></metadata><data><meanElements><EPOCH>2025-11-07T15:56:24.567072</EPOCH><MEAN_MOTION>14.36691704</MEAN_MOTION><ECCENTRICITY>.0002221</ECCENTRICITY><INCLINATION>86.4022</INCLINATION><RA_OF_ASC_NODE>21.9266</RA_OF_ASC_NODE><ARG_OF_PERICENTER>99.7954</ARG_OF_PERICENTER><MEAN_ANOMALY>260.3494</MEAN_ANOMALY></meanElements><tleParameters><EPHEMERIS_TYPE>0</EPHEMERIS_TYPE><CLASSIFICATION_TYPE>U</CLASSIFICATION_TYPE><NORAD_CAT_ID>25286</NORAD_CAT_ID><ELEMENT_SET_NO>999</ELEMENT_SET_NO><REV_AT_EPOCH>44444</REV_AT_EPOCH><BSTAR>.2184E-3</BSTAR><MEAN_MOTION_DOT>.663E-5</MEAN_MOTION_DOT><MEAN_MOTION_DDOT>0</MEAN_MOTION_DDOT></tleParameters></data></segment></body></omm>
<omm id="CCSDS_OMM_VERS" version="2.0">
<header><CREATION_DATE/><ORIGINATOR/></header><body><segment><metadata><OBJECT_NAME>IRIDIUM 69</OBJECT_NAME><OBJECT_ID>1998-026A</OBJECT_ID><CENTER_NAME>EARTH</CENTER_NAME><REF_FRAME>TEME</REF_FRAME><TIME_SYSTEM>UTC</TIME_SYSTEM><MEAN_ELEMENT_THEORY>SGP4</MEAN_ELEMENT_THEORY></metadata><data><meanElements><EPOCH>2025-11-07T15:39:01.686240</EPOCH><MEAN_MOTION>14.41154426</MEAN_MOTION><ECCENTRICITY>.0000288</ECCENTRICITY><INCLINATION>86.4008</INCLINATION><RA_OF_ASC_NODE>34.7645</RA_OF_ASC_NODE><ARG_OF_PERICENTER>230.5715</ARG_OF_PERICENTER><MEAN_ANOMALY>129.5460</MEAN_ANOMALY></meanElements><tleParameters><EPHEMERIS_TYPE>0</EPHEMERIS_TYPE><CLASSIFICATION_TYPE>U</CLASSIFICATION_TYPE><NORAD_CAT_ID>25319</NORAD_CAT_ID><ELEMENT_SET_NO>999</ELEMENT_SET_NO><REV_AT_EPOCH>44372</REV_AT_EPOCH><BSTAR>.28628E-3</BSTAR><MEAN_MOTION_DOT>.942E-5</MEAN_MOTION_DOT><MEAN_MOTION_DDOT>0</MEAN_MOTION_DDOT></tleParameters></data></segment></body></omm>
<omm id="CCSDS_OMM_VERS" version="2.0">
<header><CREATION_DATE/><ORIGINATOR/></header><body><segment><metadata><OBJECT_NAME>IRIDIUM 71</OBJECT_NAME><OBJECT_ID>1998-026B</OBJECT_ID><CENTER_NAME>EARTH</CENTER_NAME><REF_FRAME>TEME</REF_FRAME><TIME_SYSTEM>UTC</TIME_SYSTEM><MEAN_ELEMENT_THEORY>SGP4</MEAN_ELEMENT_THEORY></metadata><data><meanElements><EPOCH>2025-11-07T15:23:58.303392</EPOCH><MEAN_MOTION>14.41284532</MEAN_MOTION><ECCENTRICITY>.0002148</ECCENTRICITY><INCLINATION>86.4011</INCLINATION><RA_OF_ASC_NODE>29.4449</RA_OF_ASC_NODE><ARG_OF_PERICENTER>35.6776</ARG_OF_PERICENTER><MEAN_ANOMALY>324.4567</MEAN_ANOMALY></meanElements><tleParameters><EPHEMERIS_TYPE>0</EPHEMERIS_TYPE><CLASSIFICATION_TYPE>U</CLASSIFICATION_TYPE><NORAD_CAT_ID>25320</NORAD_CAT_ID><ELEMENT_SET_NO>999</ELEMENT_SET_NO><REV_AT_EPOCH>44425</REV_AT_EPOCH><BSTAR>.15549E-3</BSTAR><MEAN_MOTION_DOT>.522E-5</MEAN_MOTION_DOT><MEAN_MOTION_DDOT>0</MEAN_MOTION_DDOT></tleParameters></data></segment></body></omm>
<omm id="CCSDS_OMM_VERS" version="2.0">
<header><CREATION_DATE/><ORIGINATOR/></header><body><segment><metadata><OBJECT_NAME>IRIDIUM 73</OBJECT_NAME><OBJECT_ID>1998-032C</OBJECT_ID><CENTER_NAME>EARTH</CENTER_NAME><REF_FRAME>TEME</REF_FRAME><TIME_SYSTEM>UTC</TIME_SYSTEM><MEAN_ELEMENT_THEORY>SGP4</MEAN_ELEMENT_THEORY></metadata><data><meanElements><EPOCH>2025-11-07T13:29:41.754912</EPOCH><MEAN_MOTION>14.51918830</MEAN_MOTION><ECCENTRICITY>.0001856</ECCENTRICITY><INCLINATION>86.4426</INCLINATION><RA_OF_ASC_NODE>345.9407</RA_OF_ASC_NODE><ARG_OF_PERICENTER>107.0229</ARG_OF_PERICENTER><MEAN_ANOMALY>253.1180</MEAN_ANOMALY></meanElements><tleParameters><EPHEMERIS_TYPE>0</EPHEMERIS_TYPE><CLASSIFICATION_TYPE>U</CLASSIFICATION_TYPE><NORAD_CAT_ID>25344</NORAD_CAT_ID><ELEMENT_SET_NO>999</ELEMENT_SET_NO><REV_AT_EPOCH>45136</REV_AT_EPOCH><BSTAR>.21531E-3</BSTAR><MEAN_MOTION_DOT>.888E-5</MEAN_MOTION_DOT><MEAN_MOTION_DDOT>0</MEAN_MOTION_DDOT></tleParameters></data></segment></body></omm>
<omm id="CCSDS_OMM_VERS" version="2.0">
<header><CREATION_DATE/><ORIGINATOR/></header><body><segment><metadata><OBJECT_NAME>IRIDIUM 82</OBJECT_NAME><OBJECT_ID>1998-051A</OBJECT_ID><CENTER_NAME>EARTH</CENTER_NAME><REF_FRAME>TEME</REF_FRAME><TIME_SYSTEM>UTC</TIME_SYSTEM><MEAN_ELEMENT_THEORY>SGP4</MEAN_ELEMENT_THEORY></metadata><data><meanElements><EPOCH>2025-11-07T16:01:00.571872</EPOCH><MEAN_MOTION>15.42814795</MEAN_MOTION><ECCENTRICITY>.006913</ECCENTRICITY><INCLINATION>86.3651</INCLINATION><RA_OF_ASC_NODE>38.7054</RA_OF_ASC_NODE><ARG_OF_PERICENTER>109.0396</ARG_OF_PERICENTER><MEAN_ANOMALY>251.8365</MEAN_ANOMALY></meanElements><tleParameters><EPHEMERIS_TYPE>0</EPHEMERIS_TYPE><CLASSIFICATION_TYPE>U</CLASSIFICATION_TYPE><NORAD_CAT_ID>25467</NORAD_CAT_ID><ELEMENT_SET_NO>999</ELEMENT_SET_NO><REV_AT_EPOCH>44598</REV_AT_EPOCH><BSTAR>.12566E-2</BSTAR><MEAN_MOTION_DOT>.60439E-3</MEAN_MOTION_DOT><MEAN_MOTION_DDOT>0</MEAN_MOTION_DDOT></tleParameters></data></segment></body></omm>
</ndm>
