IRIDIUM 63              
1 25286U 98021B   25311.66417323  .00000663  00000+0  21840-3 0  9999
2 25286  86.4022  21.9266 0002221  99.7954 260.3494 14.36691704444442
IRIDIUM 69              
1 25319U 98026A   25311.65210285  .00000942  00000+0  28628-3 0  9999
2 25319  86.4008  34.7645 0000288 230.5715 129.5460 14.41154426443727
IRIDIUM 71              
1 25320U 98026B   25311.64164703  .00000522  00000+0  15549-3 0  9995
2 25320  86.4011  29.4449 0002148  35.6776 324.4567 14.41284532444259
IRIDIUM 73              
1 25344U 98032C   25311.56228883  .00000888  00000+0  21531-3 0  9992
2 25344  86.4426 345.9407 0001856 107.0229 253.1180 14.51918830451362
IRIDIUM 82              
1 25467U 98051A   25311.66736773  .00060439  00000+0  12566-2 0  9997
2 25467  86.3651  38.7054 0069130 109.0396 251.8365 15.42814795445985
